{
  "type": "FeatureCollection",
  "name": "NagRiverSegments",
  "features": [
    {
      "type": "Feature",
      "properties": {
        "segment_id": "S001",
        "name": "Nag River Segment S001",
        "length_km": 0.3,
        "priority_score": 15,
        "priority_level": "Low",
        "has_ground_data": false,
        "centroid": [
          21.12458,
          79.04299
        ]
      },
      "geometry": {
        "type": "LineString",
        "coordinates": [
          [
            79.0416319,
            21.1250702
          ],
          [
            79.0423696,
            21.1245079
          ],
          [
            79.0429042,
            21.1242574
          ],
          [
            79.0434023,
            21.1245763
          ],
          [
            79.0436758,
            21.124516
          ],
          [
            79.043962,
            21.1245787
          ]
        ]
      }
    },
    {
      "type": "Feature",
      "properties": {
        "segment_id": "S002",
        "name": "Nag River Segment S002",
        "length_km": 0.42,
        "priority_score": 19,
        "priority_level": "Low",
        "has_ground_data": true,
        "centroid": [
          21.12574,
          79.04465
        ]
      },
      "geometry": {
        "type": "LineString",
        "coordinates": [
          [
            79.043962,
            21.1245787
          ],
          [
            79.0441467,
            21.124718
          ],
          [
            79.0442028,
            21.1252523
          ],
          [
            79.0444472,
            21.1256627
          ],
          [
            79.0450882,
            21.126637
          ],
          [
            79.0460812,
            21.1275816
          ]
        ]
      }
    },
    {
      "type": "Feature",
      "properties": {
        "segment_id": "S003",
        "name": "Nag River Segment S003",
        "length_km": 0.44,
        "priority_score": 23,
        "priority_level": "Low",
        "has_ground_data": false,
        "centroid": [
          21.12904,
          79.04805
        ]
      },
      "geometry": {
        "type": "LineString",
        "coordinates": [
          [
            79.0460812,
            21.1275816
          ],
          [
            79.0471519,
            21.1286435
          ],
          [
            79.0473658,
            21.1287676
          ],
          [
            79.0481269,
            21.1290811
          ],
          [
            79.0491078,
            21.1296898
          ],
          [
            79.0491943,
            21.129725
          ],
          [
            79.0493056,
            21.1297702
          ]
        ]
      }
    },
    {
      "type": "Feature",
      "properties": {
        "segment_id": "S004",
        "name": "Nag River Segment S004",
        "length_km": 0.24,
        "priority_score": 27,
        "priority_level": "Moderate",
        "has_ground_data": false,
        "centroid": [
          21.12987,
          79.05009
        ]
      },
      "geometry": {
        "type": "LineString",
        "coordinates": [
          [
            79.0493056,
            21.1297702
          ],
          [
            79.0494425,
            21.1298259
          ],
          [
            79.0495453,
            21.1298559
          ],
          [
            79.0500862,
            21.130002
          ],
          [
            79.0507557,
            21.12997
          ],
          [
            79.0514338,
            21.1298259
          ]
        ]
      }
    },
    {
      "type": "Feature",
      "properties": {
        "segment_id": "S005",
        "name": "Nag River Segment S005",
        "length_km": 0.64,
        "priority_score": 31,
        "priority_level": "Moderate",
        "has_ground_data": true,
        "centroid": [
          21.13049,
          79.05457
        ]
      },
      "geometry": {
        "type": "LineString",
        "coordinates": [
          [
            79.0514338,
            21.1298259
          ],
          [
            79.0534851,
            21.1295136
          ],
          [
            79.0545408,
            21.1301461
          ],
          [
            79.0553648,
            21.1308106
          ],
          [
            79.0560085,
            21.1312029
          ],
          [
            79.0566008,
            21.1314671
          ]
        ]
      }
    },
    {
      "type": "Feature",
      "properties": {
        "segment_id": "S006",
        "name": "Nag River Segment S006",
        "length_km": 0.47,
        "priority_score": 35,
        "priority_level": "Moderate",
        "has_ground_data": false,
        "centroid": [
          21.13356,
          79.05801
        ]
      },
      "geometry": {
        "type": "LineString",
        "coordinates": [
          [
            79.0566008,
            21.1314671
          ],
          [
            79.0574763,
            21.1335806
          ],
          [
            79.0576653,
            21.1336562
          ],
          [
            79.057927,
            21.1337776
          ],
          [
            79.0582487,
            21.1338849
          ],
          [
            79.0589249,
            21.1341871
          ],
          [
            79.0592332,
            21.1343342
          ]
        ]
      }
    },
    {
      "type": "Feature",
      "properties": {
        "segment_id": "S007",
        "name": "Nag River Segment S007",
        "length_km": 2.97,
        "priority_score": 39,
        "priority_level": "Moderate",
        "has_ground_data": false,
        "centroid": [
          21.13732,
          79.07221
        ]
      },
      "geometry": {
        "type": "LineString",
        "coordinates": [
          [
            79.0592332,
            21.1343342
          ],
          [
            79.0599976,
            21.1346382
          ],
          [
            79.06078,
            21.1349976
          ],
          [
            79.0839221,
            21.1403644
          ],
          [
            79.08442,
            21.1400122
          ],
          [
            79.0849092,
            21.1395558
          ]
        ]
      }
    },
    {
      "type": "Feature",
      "properties": {
        "segment_id": "S008",
        "name": "Nag River Segment S008",
        "length_km": 0.26,
        "priority_score": 43,
        "priority_level": "Moderate",
        "has_ground_data": true,
        "centroid": [
          21.1387,
          79.08547
        ]
      },
      "geometry": {
        "type": "LineString",
        "coordinates": [
          [
            79.0849092,
            21.1395558
          ],
          [
            79.0850208,
            21.1393397
          ],
          [
            79.0853212,
            21.1390195
          ],
          [
            79.08551,
            21.1387393
          ],
          [
            79.0858448,
            21.1378747
          ],
          [
            79.0861881,
            21.1376585
          ]
        ]
      }
    },
    {
      "type": "Feature",
      "properties": {
        "segment_id": "S009",
        "name": "Nag River Segment S009",
        "length_km": 0.42,
        "priority_score": 47,
        "priority_level": "Moderate",
        "has_ground_data": false,
        "centroid": [
          21.13757,
          79.08837
        ]
      },
      "geometry": {
        "type": "LineString",
        "coordinates": [
          [
            79.0861881,
            21.1376585
          ],
          [
            79.0874927,
            21.1378747
          ],
          [
            79.0880102,
            21.1377067
          ],
          [
            79.0887372,
            21.1374504
          ],
          [
            79.0890119,
            21.1374104
          ],
          [
            79.0892694,
            21.1374104
          ],
          [
            79.0898986,
            21.1374845
          ]
        ]
      }
    },
    {
      "type": "Feature",
      "properties": {
        "segment_id": "S010",
        "name": "Nag River Segment S010",
        "length_km": 0.44,
        "priority_score": 51,
        "priority_level": "High",
        "has_ground_data": false,
        "centroid": [
          21.13719,
          79.09208
        ]
      },
      "geometry": {
        "type": "LineString",
        "coordinates": [
          [
            79.0898986,
            21.1374845
          ],
          [
            79.0903312,
            21.1374286
          ],
          [
            79.0923765,
            21.1370581
          ],
          [
            79.0926771,
            21.1370752
          ],
          [
            79.0934238,
            21.137139
          ],
          [
            79.0937989,
            21.1369782
          ]
        ]
      }
    },
    {
      "type": "Feature",
      "properties": {
        "segment_id": "S011",
        "name": "Nag River Segment S011",
        "length_km": 0.25,
        "priority_score": 55,
        "priority_level": "High",
        "has_ground_data": true,
        "centroid": [
          21.13705,
          79.09475
        ]
      },
      "geometry": {
        "type": "LineString",
        "coordinates": [
          [
            79.0937989,
            21.1369782
          ],
          [
            79.0941626,
            21.1367881
          ],
          [
            79.0943941,
            21.1367915
          ],
          [
            79.0950372,
            21.1370901
          ],
          [
            79.0952731,
            21.1371957
          ],
          [
            79.0958612,
            21.1374424
          ]
        ]
      }
    },
    {
      "type": "Feature",
      "properties": {
        "segment_id": "S012",
        "name": "Nag River Segment S012",
        "length_km": 0.55,
        "priority_score": 59,
        "priority_level": "High",
        "has_ground_data": false,
        "centroid": [
          21.13731,
          79.09855
        ]
      },
      "geometry": {
        "type": "LineString",
        "coordinates": [
          [
            79.0958612,
            21.1374424
          ],
          [
            79.096874,
            21.1374504
          ],
          [
            79.0978868,
            21.1373383
          ],
          [
            79.0984533,
            21.1373383
          ],
          [
            79.0995433,
            21.1371622
          ],
          [
            79.100436,
            21.1371622
          ],
          [
            79.1008094,
            21.1372448
          ]
        ]
      }
    },
    {
      "type": "Feature",
      "properties": {
        "segment_id": "S013",
        "name": "Nag River Segment S013",
        "length_km": 0.4,
        "priority_score": 63,
        "priority_level": "High",
        "has_ground_data": false,
        "centroid": [
          21.13712,
          79.1024
        ]
      },
      "geometry": {
        "type": "LineString",
        "coordinates": [
          [
            79.1008094,
            21.1372448
          ],
          [
            79.1010046,
            21.1372766
          ],
          [
            79.1018779,
            21.136922
          ],
          [
            79.1025753,
            21.1369048
          ],
          [
            79.1038606,
            21.1371622
          ],
          [
            79.1042908,
            21.1372198
          ]
        ]
      }
    },
    {
      "type": "Feature",
      "properties": {
        "segment_id": "S014",
        "name": "Nag River Segment S014",
        "length_km": 0.18,
        "priority_score": 67,
        "priority_level": "High",
        "has_ground_data": true,
        "centroid": [
          21.13712,
          79.10505
        ]
      },
      "geometry": {
        "type": "LineString",
        "coordinates": [
          [
            79.1042908,
            21.1372198
          ],
          [
            79.1047619,
            21.1369843
          ],
          [
            79.1049077,
            21.1369861
          ],
          [
            79.1051309,
            21.136954
          ],
          [
            79.1055343,
            21.1372102
          ],
          [
            79.1056545,
            21.1373783
          ]
        ]
      }
    },
    {
      "type": "Feature",
      "properties": {
        "segment_id": "S015",
        "name": "Nag River Segment S015",
        "length_km": 0.63,
        "priority_score": 71,
        "priority_level": "High",
        "has_ground_data": false,
        "centroid": [
          21.13849,
          79.10759
        ]
      },
      "geometry": {
        "type": "LineString",
        "coordinates": [
          [
            79.1056545,
            21.1373783
          ],
          [
            79.1058519,
            21.1384271
          ],
          [
            79.1062896,
            21.1387073
          ],
          [
            79.1074569,
            21.1388754
          ],
          [
            79.108135,
            21.1388514
          ],
          [
            79.1094053,
            21.1386112
          ],
          [
            79.1103408,
            21.1386112
          ]
        ]
      }
    },
    {
      "type": "Feature",
      "properties": {
        "segment_id": "S016",
        "name": "Nag River Segment S016",
        "length_km": 0.24,
        "priority_score": 75,
        "priority_level": "High",
        "has_ground_data": false,
        "centroid": [
          21.1386,
          79.11162
        ]
      },
      "geometry": {
        "type": "LineString",
        "coordinates": [
          [
            79.1103408,
            21.1386112
          ],
          [
            79.1111708,
            21.1386217
          ],
          [
            79.1116618,
            21.1386147
          ],
          [
            79.1118892,
            21.1385971
          ],
          [
            79.1121846,
            21.1385883
          ],
          [
            79.1124609,
            21.1385792
          ]
        ]
      }
    },
    {
      "type": "Feature",
      "properties": {
        "segment_id": "S017",
        "name": "Nag River Segment S017",
        "length_km": 0.29,
        "priority_score": 79,
        "priority_level": "Critical",
        "has_ground_data": true,
        "centroid": [
          21.13884,
          79.11362
        ]
      },
      "geometry": {
        "type": "LineString",
        "coordinates": [
          [
            79.1124609,
            21.1385792
          ],
          [
            79.1128643,
            21.1386352
          ],
          [
            79.113315,
            21.1388084
          ],
          [
            79.1135769,
            21.1388908
          ],
          [
            79.1145208,
            21.1390275
          ],
          [
            79.1149816,
            21.1391258
          ]
        ]
      }
    },
    {
      "type": "Feature",
      "properties": {
        "segment_id": "S018",
        "name": "Nag River Segment S018",
        "length_km": 0.34,
        "priority_score": 83,
        "priority_level": "Critical",
        "has_ground_data": false,
        "centroid": [
          21.13953,
          79.11647
        ]
      },
      "geometry": {
        "type": "LineString",
        "coordinates": [
          [
            79.1149816,
            21.1391258
          ],
          [
            79.1154649,
            21.1392756
          ],
          [
            79.1159,
            21.1394086
          ],
          [
            79.1166422,
            21.1395576
          ],
          [
            79.1169469,
            21.1396167
          ],
          [
            79.1174268,
            21.1397861
          ],
          [
            79.1179094,
            21.139938
          ]
        ]
      }
    },
    {
      "type": "Feature",
      "properties": {
        "segment_id": "S019",
        "name": "Nag River Segment S019",
        "length_km": 0.33,
        "priority_score": 87,
        "priority_level": "Critical",
        "has_ground_data": false,
        "centroid": [
          21.14025,
          79.11914
        ]
      },
      "geometry": {
        "type": "LineString",
        "coordinates": [
          [
            79.1179094,
            21.139938
          ],
          [
            79.1182333,
            21.1400227
          ],
          [
            79.1185263,
            21.1400784
          ],
          [
            79.1189668,
            21.1401883
          ],
          [
            79.1204431,
            21.1406046
          ],
          [
            79.1207608,
            21.1406816
          ]
        ]
      }
    },
    {
      "type": "Feature",
      "properties": {
        "segment_id": "S020",
        "name": "Nag River Segment S020",
        "length_km": 0.68,
        "priority_score": 91,
        "priority_level": "Critical",
        "has_ground_data": true,
        "centroid": [
          21.14127,
          79.12377
        ]
      },
      "geometry": {
        "type": "LineString",
        "coordinates": [
          [
            79.1207608,
            21.1406816
          ],
          [
            79.1227093,
            21.1411084
          ],
          [
            79.1229923,
            21.1411249
          ],
          [
            79.1242438,
            21.1414459
          ],
          [
            79.1251209,
            21.1415332
          ],
          [
            79.1267845,
            21.1417342
          ]
        ]
      }
    }
  ]
}