{
  "type": "FeatureCollection",
  "name": "NagRiverSegments",
  "crs": {
    "type": "name",
    "properties": {
      "name": "urn:ogc:def:crs:OGC:1.3:CRS84"
    }
  },
  "features": [
    {
      "type": "Feature",
      "properties": {
        "segment_id": "nag-seg-001",
        "name": "Ambazari Spillway to Subhash Nagar",
        "length_km": 2.4,
        "investigation_priority_score": 18,
        "priority_level": "Low",
        "has_ground_data": false,
        "centroid": [21.1275, 79.0520]
      },
      "geometry": {
        "type": "LineString",
        "coordinates": [
          [79.0430, 21.1250],
          [79.0475, 21.1265],
          [79.0520, 21.1280],
          [79.0560, 21.1295]
        ]
      }
    },
    {
      "type": "Feature",
      "properties": {
        "segment_id": "nag-seg-002",
        "name": "Subhash Nagar to Krazy Castle Stretch",
        "length_km": 1.8,
        "investigation_priority_score": 38,
        "priority_level": "Moderate",
        "has_ground_data": true,
        "centroid": [21.1310, 79.0620]
      },
      "geometry": {
        "type": "LineString",
        "coordinates": [
          [79.0560, 21.1295],
          [79.0600, 21.1305],
          [79.0635, 21.1320],
          [79.0670, 21.1330]
        ]
      }
    },
    {
      "type": "Feature",
      "properties": {
        "segment_id": "nag-seg-003",
        "name": "Krazy Castle to Panchsheel Square",
        "length_km": 3.1,
        "investigation_priority_score": 68,
        "priority_level": "High",
        "has_ground_data": false,
        "centroid": [21.1350, 79.0740]
      },
      "geometry": {
        "type": "LineString",
        "coordinates": [
          [79.0670, 21.1330],
          [79.0710, 21.1345],
          [79.0750, 21.1355],
          [79.0790, 21.1370]
        ]
      }
    },
    {
      "type": "Feature",
      "properties": {
        "segment_id": "nag-seg-004",
        "name": "Panchsheel Square to Sitabuldi Bridge",
        "length_km": 2.2,
        "investigation_priority_score": 88,
        "priority_level": "Critical",
        "has_ground_data": true,
        "centroid": [21.1400, 79.0850]
      },
      "geometry": {
        "type": "LineString",
        "coordinates": [
          [79.0790, 21.1370],
          [79.0835, 21.1390],
          [79.0870, 21.1415],
          [79.0910, 21.1430]
        ]
      }
    },
    {
      "type": "Feature",
      "properties": {
        "segment_id": "nag-seg-005",
        "name": "Sitabuldi Bridge to Mokshdham",
        "length_km": 2.9,
        "investigation_priority_score": 58,
        "priority_level": "High",
        "has_ground_data": true,
        "centroid": [21.1440, 79.0980]
      },
      "geometry": {
        "type": "LineString",
        "coordinates": [
          [79.0910, 21.1430],
          [79.0950, 21.1438],
          [79.0990, 21.1445],
          [79.1030, 21.1455]
        ]
      }
    },
    {
      "type": "Feature",
      "properties": {
        "segment_id": "nag-seg-006",
        "name": "Mokshdham to Pardi Confluence",
        "length_km": 4.5,
        "investigation_priority_score": 42,
        "priority_level": "Moderate",
        "has_ground_data": false,
        "centroid": [21.1480, 79.1150]
      },
      "geometry": {
        "type": "LineString",
        "coordinates": [
          [79.1030, 21.1455],
          [79.1090, 21.1470],
          [79.1150, 21.1485],
          [79.1220, 21.1500]
        ]
      }
    }
  ]
}
